OBJECT_NAME,OBJECT_ID,EPOCH,MEAN_MOTION,ECCENTRICITY,INCLINATION,RA_OF_ASC_NODE,ARG_OF_PERICENTER,MEAN_ANOMALY,EPHEMERIS_TYPE,CLASSIFICATION_TYPE,NORAD_CAT_ID,ELEMENT_SET_NO,REV_AT_EPOCH,BSTAR,MEAN_MOTION_DOT,MEAN_MOTION_DDOT
STARLINK-36200,2025-298AC,2026-07-22T13:05:03.697152,14.98344698,.00026729,70.0025,34.5912,261.2202,98.8654,0,U,67101,999,3341,.38986687E-3,.4564E-4,0
STARLINK-36255,2025-299A,2026-07-21T23:37:51.904992,15.27599139,.00017954,43.0004,130.6749,236.8350,123.2330,0,U,67102,999,3365,.67952302E-3,.18495E-3,0
STARLINK-36256,2025-299B,2026-07-21T04:38:44.427264,15.27591085,.00011925,43.0017,135.0654,273.1730,86.8985,0,U,67103,999,3353,.28868008E-3,.7693E-4,0
STARLINK-36258,2025-299C,2026-07-22T12:22:13.805184,15.27590133,.00008225,43.0053,127.7738,13.7176,346.3698,0,U,67104,999,3373,.70148325E-3,.19097E-3,0
STARLINK-36261,2025-299D,2026-07-22T12:05:34.330848,15.27604341,.00003038,43.0016,127.6998,332.0689,28.0147,0,U,67105,999,3373,.65940052E-3,.17941E-3,0
STARLINK-36259,2025-299E,2026-07-21T11:52:30.922176,15.27593666,.00009858,42.9997,133.0162,264.9769,95.0970,0,U,67106,999,3358,.36183862E-3,.9712E-4,0
STARLINK-36196,2025-299F,2026-07-21T23:34:09.992640,15.27598328,.00008887,43.0031,130.6586,266.7619,93.3131,0,U,67107,999,3365,.58552475E-3,.15894E-3,0
STARLINK-36208,2025-299G,2026-07-21T11:48:49.021056,15.27602382,.00002884,42.9987,132.9935,316.5754,43.5075,0,U,67108,999,3358,.46805022E-3,.12649E-3,0
STARLINK-35764,2025-299H,2026-07-21T04:22:05.232864,15.27590776,.00016949,43.0023,134.9678,273.9139,86.1519,0,U,67109,999,3462,.52029401E-3,.14087E-3,0
STARLINK-35781,2025-299J,2026-07-22T12:29:38.105088,15.27570986,.00021999,43.0013,127.8203,290.6095,69.4520,0,U,67110,999,3373,.34341656E-3,.9197E-4,0
STARLINK-35875,2025-299K,2026-07-21T12:09:11.314080,15.27606262,.00013293,43.0014,133.1010,273.3092,86.7607,0,U,67111,999,3358,.72278196E-3,.19696E-3,0
STARLINK-35906,2025-299L,2026-07-21T12:55:25.475520,15.27599178,.00013123,43.0023,133.3436,275.6839,84.3863,0,U,67112,999,3358,.39225604E-3,.10554E-3,0
STARLINK-35789,2025-299M,2026-07-21T19:02:48.231456,15.27596912,.00006516,43.0002,131.8216,289.4686,70.6095,0,U,67113,999,3362,.65089883E-3,.17701E-3,0
STARLINK-36180,2025-299N,2026-07-22T12:16:39.804384,15.27594072,.0001797,43.0026,127.7445,271.9298,88.1348,0,U,67114,999,3373,.52578564E-3,.14241E-3,0
STARLINK-35892,2025-299P,2026-07-21T12:01:45.842592,15.27585324,.00013215,43.0010,133.0648,264.5535,95.5166,0,U,67115,999,3358,.33582224E-3,.8992E-4,0
STARLINK-35738,2025-299Q,2026-07-21T05:30:20.384640,15.27600500,.00010761,43.0000,134.4635,271.3717,88.7011,0,U,67116,999,3354,.49392857E-3,.13363E-3,0
STARLINK-35674,2025-299R,2026-07-21T04:33:11.489184,15.27589659,.00009248,43.0028,135.0242,282.6317,77.4431,0,U,67117,999,3353,.45329032E-3,.12236E-3,0
STARLINK-35701,2025-299S,2026-07-21T19:54:22.834080,15.27628213,.00012563,42.9983,131.2246,261.9348,98.1361,0,U,67118,999,3363,.1034253E-2,.2835E-3,0
STARLINK-36179,2025-299T,2026-07-22T02:25:49.554336,15.27610197,.00007254,43.0016,129.8255,265.0055,95.0714,0,U,67119,999,3367,.95980102E-3,.26268E-3,0
STARLINK-36217,2025-299U,2026-07-21T19:17:37.131072,15.27570346,.0001366,43.0018,131.8954,263.1993,96.8703,0,U,67120,999,3362,.91574302E-3,.25015E-3,0
STARLINK-36124,2025-299V,2026-07-21T04:49:51.089664,15.27590146,.0000655,43.0049,135.1096,328.4830,31.5982,0,U,67121,999,3353,.40924206E-3,.1102E-3,0
STARLINK-36188,2025-299W,2026-07-21T12:51:43.575264,15.27587182,.00011109,43.0023,133.3262,280.4841,79.5885,0,U,67122,999,3358,.55887539E-3,.15152E-3,0
STARLINK-36151,2025-299X,2026-07-22T11:39:39.621600,15.27588560,.00011589,43.0009,127.5554,270.8573,89.2146,0,U,67123,999,3373,.29329824E-3,.782E-4,0
STARLINK-36195,2025-299Y,2026-07-21T05:19:14.651904,15.27574942,.00015905,43.0016,134.4037,270.4745,89.5924,0,U,67124,999,3354,.37878216E-3,.10174E-3,0
STARLINK-36219,2025-299Z,2026-07-22T11:58:09.473664,15.27601751,.00019064,43.0051,127.6446,274.3511,85.7123,0,U,67125,999,3373,.56194863E-3,.15244E-3,0
STARLINK-36223,2025-299AA,2026-07-22T02:22:07.508064,15.27597457,.00005356,43.0006,129.8017,238.3810,121.6990,0,U,67126,999,3367,.57255748E-3,.15535E-3,0
STARLINK-36164,2025-299AB,2026-07-22T11:26:42.405216,15.27598146,.00011329,42.9987,127.4793,284.2227,75.8499,0,U,67127,999,3373,.61609579E-3,.16739E-3,0
STARLINK-35685,2025-299AC,2026-07-21T19:48:50.788512,15.27602727,.00007576,42.9991,131.1975,255.7256,104.3512,0,U,67128,999,3363,.61396673E-3,.16683E-3,0
STARLINK-36214,2025-299AD,2026-07-21T03:39:44.396352,15.27593277,.00014226,43.0014,135.6066,270.1365,89.9324,0,U,67129,999,3352,.42258501E-3,.11389E-3,0
STARLINK-36194,2025-299AE,2026-07-22T11:52:36.792192,15.27596819,.00008925,43.0021,127.6178,296.1171,63.9589,0,U,67130,999,3373,.71800772E-3,.19558E-3,0
