{"epoch":1784762836,"count":18316,"objects":[{"id":"67101","name":"STARLINK-36200","type":"PAYLOAD","l1":"1 67101U 25298AC  26203.54518168  .00004564  00000-0  38987-3 0  9999","l2":"2 67101  70.0025  34.5912 0002673 261.2202  98.8654 14.98344698 33415"},{"id":"67102","name":"STARLINK-36255","type":"PAYLOAD","l1":"1 67102U 25299A   26202.98462853  .00018495  00000-0  67952-3 0  9999","l2":"2 67102  43.0004 130.6749 0001795 236.8350 123.2330 15.27599139 33650"},{"id":"67103","name":"STARLINK-36256","type":"PAYLOAD","l1":"1 67103U 25299B   26202.19356976  .00007693  00000-0  28868-3 0  9992","l2":"2 67103  43.0017 135.0654 0001192 273.1730  86.8985 15.27591085 33535"},{"id":"67104","name":"STARLINK-36258","type":"PAYLOAD","l1":"1 67104U 25299C   26203.51543756  .00019097  00000-0  70148-3 0  9993","l2":"2 67104  43.0053 127.7738 0000823  13.7176 346.3698 15.27590133 33739"},{"id":"67105","name":"STARLINK-36261","type":"PAYLOAD","l1":"1 67105U 25299D   26203.50386957  .00017941  00000-0  65940-3 0  9991","l2":"2 67105  43.0016 127.6998 0000304 332.0689  28.0147 15.27604341 33736"},{"id":"67106","name":"STARLINK-36259","type":"PAYLOAD","l1":"1 67106U 25299E   26202.49480234  .00009712  00000-0  36184-3 0  9997","l2":"2 67106  42.9997 133.0162 0000986 264.9769  95.0970 15.27593666 33583"},{"id":"67107","name":"STARLINK-36196","type":"PAYLOAD","l1":"1 67107U 25299F   26202.98206010  .00015894  00000-0  58552-3 0  9991","l2":"2 67107  43.0031 130.6586 0000889 266.7619  93.3131 15.27598328 33652"},{"id":"67108","name":"STARLINK-36208","type":"PAYLOAD","l1":"1 67108U 25299G   26202.49223404  .00012649  00000-0  46805-3 0  9997","l2":"2 67108  42.9987 132.9935 0000288 316.5754  43.5075 15.27602382 33583"},{"id":"67109","name":"STARLINK-35764","type":"PAYLOAD","l1":"1 67109U 25299H   26202.18200501  .00014087  00000-0  52029-3 0  9990","l2":"2 67109  43.0023 134.9678 0001695 273.9139  86.1519 15.27590776 34624"},{"id":"67110","name":"STARLINK-35781","type":"PAYLOAD","l1":"1 67110U 25299J   26203.52057992  .00009197  00000-0  34342-3 0  9999","l2":"2 67110  43.0013 127.8203 0002200 290.6095  69.4520 15.27570986 33738"},{"id":"67111","name":"STARLINK-35875","type":"PAYLOAD","l1":"1 67111U 25299K   26202.50638095  .00019696  00000-0  72278-3 0  9991","l2":"2 67111  43.0014 133.1010 0001329 273.3092  86.7607 15.27606262 33580"},{"id":"67112","name":"STARLINK-35906","type":"PAYLOAD","l1":"1 67112U 25299L   26202.53848930  .00010554  00000-0  39226-3 0  9996","l2":"2 67112  43.0023 133.3436 0001312 275.6839  84.3863 15.27599178 33586"},{"id":"67113","name":"STARLINK-35789","type":"PAYLOAD","l1":"1 67113U 25299M   26202.79361379  .00017701  00000-0  65090-3 0  9991","l2":"2 67113  43.0002 131.8216 0000652 289.4686  70.6095 15.27596912 33625"},{"id":"67114","name":"STARLINK-36180","type":"PAYLOAD","l1":"1 67114U 25299N   26203.51157181  .00014241  00000-0  52579-3 0  9991","l2":"2 67114  43.0026 127.7445 0001797 271.9298  88.1348 15.27594072 33738"},{"id":"67115","name":"STARLINK-35892","type":"PAYLOAD","l1":"1 67115U 25299P   26202.50122503  .00008992  00000-0  33582-3 0  9999","l2":"2 67115  43.0010 133.0648 0001322 264.5535  95.5166 15.27585324 33586"},{"id":"67116","name":"STARLINK-35738","type":"PAYLOAD","l1":"1 67116U 25299Q   26202.22940260  .00013363  00000-0  49393-3 0  9992","l2":"2 67116  43.0000 134.4635 0001076 271.3717  88.7011 15.27600500 33544"},{"id":"67117","name":"STARLINK-35674","type":"PAYLOAD","l1":"1 67117U 25299R   26202.18971631  .00012236  00000-0  45329-3 0  9997","l2":"2 67117  43.0028 135.0242 0000925 282.6317  77.4431 15.27589659 33530"},{"id":"67118","name":"STARLINK-35701","type":"PAYLOAD","l1":"1 67118U 25299S   26202.82943095  .00028350  00000-0  10343-2 0  9993","l2":"2 67118  42.9983 131.2246 0001256 261.9348  98.1361 15.27628213 33636"},{"id":"67119","name":"STARLINK-36179","type":"PAYLOAD","l1":"1 67119U 25299T   26203.10126799  .00026268  00000-0  95980-3 0  9997","l2":"2 67119  43.0016 129.8255 0000725 265.0055  95.0714 15.27610197 33673"},{"id":"67120","name":"STARLINK-36217","type":"PAYLOAD","l1":"1 67120U 25299U   26202.80390198  .00025015  00000-0  91574-3 0  9995","l2":"2 67120  43.0018 131.8954 0001366 263.1993  96.8703 15.27570346 33621"},{"id":"67121","name":"STARLINK-36124","type":"PAYLOAD","l1":"1 67121U 25299V   26202.20128576  .00011020  00000-0  40924-3 0  9993","l2":"2 67121  43.0049 135.1096 0000655 328.4830  31.5982 15.27590146 33530"},{"id":"67122","name":"STARLINK-36188","type":"PAYLOAD","l1":"1 67122U 25299W   26202.53592101  .00015152  00000-0  55888-3 0  9994","l2":"2 67122  43.0023 133.3262 0001111 280.4841  79.5885 15.27587182 33580"},{"id":"67123","name":"STARLINK-36151","type":"PAYLOAD","l1":"1 67123U 25299X   26203.48587525  .00007820  00000-0  29330-3 0  9990","l2":"2 67123  43.0009 127.5554 0001159 270.8573  89.2146 15.27588560 33737"},{"id":"67124","name":"STARLINK-36195","type":"PAYLOAD","l1":"1 67124U 25299Y   26202.22169736  .00010174  00000-0  37878-3 0  9994","l2":"2 67124  43.0016 134.4037 0001591 270.4745  89.5924 15.27574942 33541"},{"id":"67125","name":"STARLINK-36219","type":"PAYLOAD","l1":"1 67125U 25299Z   26203.49872076  .00015244  00000-0  56195-3 0  9999","l2":"2 67125  43.0051 127.6446 0001906 274.3511  85.7123 15.27601751 33732"},{"id":"67126","name":"STARLINK-36223","type":"PAYLOAD","l1":"1 67126U 25299AA  26203.09869801  .00015535  00000-0  57256-3 0  9990","l2":"2 67126  43.0006 129.8017 0000536 238.3810 121.6990 15.27597457 33673"},{"id":"67127","name":"STARLINK-36164","type":"PAYLOAD","l1":"1 67127U 25299AB  26203.47687969  .00016739  00000-0  61610-3 0  9992","l2":"2 67127  42.9987 127.4793 0001133 284.2227  75.8499 15.27598146 33738"},{"id":"67128","name":"STARLINK-35685","type":"PAYLOAD","l1":"1 67128U 25299AC  26202.82558783  .00016683  00000-0  61397-3 0  9992","l2":"2 67128  42.9991 131.1975 0000758 255.7256 104.3512 15.27602727 33639"},{"id":"67129","name":"STARLINK-36214","type":"PAYLOAD","l1":"1 67129U 25299AD  26202.15259718  .00011389  00000-0  42259-3 0  9999","l2":"2 67129  43.0014 135.6066 0001423 270.1365  89.9324 15.27593277 33526"},{"id":"67130","name":"STARLINK-36194","type":"PAYLOAD","l1":"1 67130U 25299AE  26203.49487028  .00019558  00000-0  71801-3 0  9997","l2":"2 67130  43.0021 127.6178 0000893 296.1171  63.9589 15.27596819 33737"}]}